IRIDIUM 8 [+]           
1 24792U 97020A   16286.41893228  .00000135  00000-0  41170-4 0  9998
2 24792  86.3957  62.2672 0002067  96.5485 263.5946 14.34215249 17683
IRIDIUM 7 [+]           
1 24793U 97020B   16286.48235818  .00000141  00000-0  43214-4 0  9999
2 24793  86.3961  62.5098 0002069  95.1756 264.9676 14.34216027 17693
IRIDIUM 6 [+]           
1 24794U 97020C   16286.47591001  .00000144  00000-0  44464-4 0  9999
2 24794  86.3960  62.4491 0002118  94.4391 265.7046 14.34215055 17691
IRIDIUM 5 [+]           
1 24795U 97020D   16286.46975517  .00000156  00000-0  48754-4 0  9996
2 24795  86.3950  62.4688 0002037  92.0834 268.0595 14.34221061 17773
IRIDIUM 4 [-]           
1 24796U 97020E   16286.48594698  .00000191  00000-0  60172-4 0  9993
2 24796  86.3954  61.5597 0002129  95.2870 331.7184 14.35109584 17772
IRIDIUM 914 [-]         
1 24836U 97030A   16286.45776810  .00000174  00000-0  50209-4 0  9995
2 24836  86.3910  78.9990 0002154 136.3146 223.8223 14.38711058 13329
IRIDIUM 12 [+]          
1 24837U 97030B   16286.49584383 -.00000009  00000-0 -10326-4 0  9997
2 24837  86.3921  93.6532 0001896  87.0924 325.2336 14.34216142 11449
IRIDIUM 10 [+]          
1 24839U 97030D   16286.48309155 -.00000007  00000-0 -94587-5 0  9990
2 24839  86.3920  93.6396 0001898  88.1335 323.9071 14.34214998 11457
IRIDIUM 13 [+]          
1 24840U 97030E   16286.42224717  .00000015  00000-0 -17240-5 0  9995
2 24840  86.3922  93.8000 0001757  85.3733 274.7663 14.34214764 11439
IRIDIUM 16 [-]          
1 24841U 97030F   16286.46080937  .00000193  00000-0  58697-4 0  9990
2 24841  86.3999  93.7780 0003483  51.8788 308.2723 14.36662495 12019
IRIDIUM 911 [-]         
1 24842U 97030G   16286.46522708  .00000220  00000-0  57418-4 0  9999
2 24842  86.4425  94.7076 0014195 185.3593 174.7459 14.44896307 17177
IRIDIUM 15 [+]          
1 24869U 97034A   16286.46366601  .00000020  00000-0  73651-7 0  9998
2 24869  86.3936 125.6914 0002195  81.0157 279.1288 14.34217959  8407
IRIDIUM 17 [-]          
1 24870U 97034B   16286.54378962  .00000179  00000-0  55283-4 0  9995
2 24870  86.3938 123.9697 0001372  31.5731 328.5548 14.35707840  8642
IRIDIUM 920 [-]         
1 24871U 97034C   16286.48225299  .00000197  00000-0  56674-4 0  9998
2 24871  86.3939 110.7715 0013820  77.8989 282.3757 14.39429541 10711
IRIDIUM 18 [+]          
1 24872U 97034D   16286.16556401  .00000005  00000-0 -52057-5 0  9997
2 24872  86.3944 125.7730 0002066  80.8303 279.3127 14.34217946  8369
IRIDIUM 921 [-]         
1 24873U 97034E   16286.24219634  .00001500  00000-0  88170-4 0  9995
2 24873  86.3992 183.1126 0006680 190.5404 169.5695 15.10836253 50659
IRIDIUM 26 [-]          
1 24903U 97043A   16286.24892762  .00000136  00000-0  40624-4 0  9994
2 24903  86.4005 358.6193 0002313  91.3192 324.4257 14.35213558  2413
IRIDIUM 25 [+]          
1 24904U 97043B   16286.25341158  .00000012  00000-0 -27660-5 0  9994
2 24904  86.3999 359.1001 0002317  94.0451 266.1010 14.34218062  2290
IRIDIUM 46 [+]          
1 24905U 97043C   16286.33586918  .00000212  00000-0  68665-4 0  9999
2 24905  86.4007 359.5969 0002336  96.1398 264.0064 14.34218606  2305
IRIDIUM 23 [+]          
1 24906U 97043D   16286.33794071  .00000029  00000-0  32078-5 0  9997
2 24906  86.4013 359.0753 0002384  97.4296 306.1323 14.34216601  2313
IRIDIUM 22 [+]          
1 24907U 97043E   16286.23438235  .00000179  00000-0  56958-4 0  9992
2 24907  86.4008 359.7476 0002267  96.5905 263.5549 14.34217682  2297
DUMMY MASS 1 [-]        
1 24925U 97048A   16286.15930433  .00000119  00000-0  10680-4 0  9991
2 24925  86.3377 157.7823 0006598 179.6231 180.4999 14.85100739 34777
DUMMY MASS 2 [-]        
1 24926U 97048B   16286.15910354  .00000122  00000-0  11069-4 0  9998
2 24926  86.3378 158.8565 0007066 189.5688 170.5403 14.84869196 34623
IRIDIUM 29 [-]          
1 24944U 97051A   16286.36300677  .00000109  00000-0  31681-4 0  9993
2 24944  86.3999  30.5442 0001981 101.7413 258.4006 14.34603296998899
IRIDIUM 32 [+]          
1 24945U 97051B   16286.33308356  .00000226  00000-0  73705-4 0  9996
2 24945  86.3998  30.7212 0002239  98.4596 261.6854 14.34219476998897
IRIDIUM 33 [-]          
1 24946U 97051C   16286.38739816  .00000150  00000-0  47019-4 0  9996
2 24946  86.3915  30.4548 0006995 345.9830  14.1170 14.33515472998537
IRIDIUM 28 [-]          
1 24948U 97051E   16286.39690027  .00000145  00000-0  43604-4 0  9999
2 24948  86.4005  29.9043 0002253  84.9087 275.2366 14.35507706999025
IRIDIUM 30 [+]          
1 24949U 97051F   16286.39647089 -.00000045  00000-0 -23084-4 0  9991
2 24949  86.4016  30.7898 0002167  79.7041 280.4399 14.34220576998885
IRIDIUM 31 [+]          
1 24950U 97051G   16286.39013459  .00000007  00000-0 -46950-5 0  9996
2 24950  86.3999  30.7887 0002044  99.3906 260.7521 14.34222127998899
IRIDIUM 19 [+]          
1 24965U 97056A   16286.44431472  .00000143  00000-0  43875-4 0  9994
2 24965  86.3958  62.2663 0002069  95.7494 264.3937 14.34214018997048
IRIDIUM 35 [+]          
1 24966U 97056B   16286.45700838  .00000142  00000-0  43722-4 0  9991
2 24966  86.3957  62.2567 0002083  95.2466 264.8967 14.34215147997021
IRIDIUM 36 [-]          
1 24967U 97056C   16286.48049215  .00000151  00000-0  45463-4 0  9994
2 24967  86.3969  61.4992 0001980  94.1618 265.9805 14.35558601997322
IRIDIUM 37 [+]          
1 24968U 97056D   16286.50140640  .00000148  00000-0  45634-4 0  9998
2 24968  86.3959  62.4175 0002063  96.4397 263.7034 14.34214745997033
IRIDIUM 34 [+]          
1 24969U 97056E   16286.45066377  .00000160  00000-0  50086-4 0  9998
2 24969  86.3960  62.3754 0002030  95.2050 264.9377 14.34216770997027
IRIDIUM 43 [+]          
1 25039U 97069A   16286.43828562 -.00000110  00000-0 -46382-4 0  9992
2 25039  86.3937 125.5884 0001772  82.5086 277.6311 14.34218355990805
IRIDIUM 41 [+]          
1 25040U 97069B   16286.50172608 -.00000009  00000-0 -10306-4 0  9999
2 25040  86.3942 125.5166 0002097  81.0062 279.1371 14.34221792990818
IRIDIUM 40 [+]          
1 25041U 97069C   16286.17837544 -.00000143  00000-0 -58121-4 0  9996
2 25041  86.3936 125.8777 0000913  89.6997 270.4304 14.34215660990782
IRIDIUM 39 [B]          
1 25042U 97069D   16286.50823818  .00000225  00000-0  57246-4 0  9999
2 25042  86.3898 124.9039 0020809  59.7555 300.5704 14.46093713990926
IRIDIUM 38 [-]          
1 25043U 97069E   16286.50265025  .00000183  00000-0  56065-4 0  9991
2 25043  86.3937 122.9990 0002766  62.3834 297.7644 14.35980442991188
IRIDIUM 42 [-]          
1 25077U 97077A   16286.49394055  .00000153  00000-0  47287-4 0  9994
2 25077  86.3942 125.5116 0002140  84.5085 275.6355 14.34506591986681
IRIDIUM 44 [-]          
1 25078U 97077B   16286.50885391  .00000164  00000-0  47678-4 0  9991
2 25078  86.3929 115.6901 0002751  52.5460 307.5987 14.38066415988036
IRIDIUM 45 [+]          
1 25104U 97082A   16286.38384174  .00000242  00000-0  79248-4 0  9991
2 25104  86.3997  30.8295 0002893  74.7332 285.4183 14.34221139984856
IRIDIUM 24 [-]          
1 25105U 97082B   16286.28794239  .00000164  00000-0  45941-4 0  9994
2 25105  86.3950 340.1574 0013862  83.3588 276.9188 14.39809294987188
IRIDIUM 47 [+]          
1 25106U 97082C   16286.34220980  .00000222  00000-0  72358-4 0  9996
2 25106  86.3998 358.9422 0002406  97.0681 263.0789 14.34217297984843
IRIDIUM 49 [+]          
1 25108U 97082E   16286.36386166  .00000050  00000-0  10767-4 0  9994
2 25108  86.4000 359.0291 0002329  96.0404 310.3834 14.34217042984858
IRIDIUM 52 [+]          
1 25169U 98010A   16286.45397195 -.00000014  00000-0 -12169-4 0  9997
2 25169  86.3925  93.9554 0001890  86.9067 273.2345 14.34215940976277
IRIDIUM 56 [+]          
1 25170U 98010B   16286.44757187 -.00000094  00000-0 -40623-4 0  9993
2 25170  86.3916  94.0569 0002178  83.8541 276.2903 14.34212992976255
IRIDIUM 54 [+]          
1 25171U 98010C   16286.47935259 -.00000019  00000-0 -13715-4 0  9994
2 25171  86.3925  93.9644 0001883  87.4139 272.7272 14.34215899976421
IRIDIUM 50 [+]          
1 25172U 98010D   16286.44131073 -.00000012  00000-0 -11346-4 0  9995
2 25172  86.3926  93.9380 0001880  90.1099 270.0312 14.34215180976253
IRIDIUM 53 [+]          
1 25173U 98010E   16286.46033504 -.00000014  00000-0 -12086-4 0  9992
2 25173  86.3925  93.9357 0001882  87.1156 273.0256 14.34215448976267
IRIDIUM 51 [S]          
1 25262U 98018A   16286.47603833  .00000211  00000-0  68425-4 0  9993
2 25262  86.3959  62.5447 0002189  99.2622 260.8821 14.34213630975653
IRIDIUM 61 [+]          
1 25263U 98018B   16286.43796616  .00000137  00000-0  41713-4 0  9990
2 25263  86.3959  62.4095 0002112  95.4657 264.6779 14.34214263971354
IRIDIUM 55 [+]          
1 25272U 98019A   16286.44085719  .00000223  00000-0  72403-4 0  9993
2 25272  86.3998  30.5860 0002232  97.4194 262.7256 14.34222242970550
IRIDIUM 57 [-]          
1 25273U 98019B   16286.41433900  .00000105  00000-0  30404-4 0  9994
2 25273  86.4004  30.8938 0002120  96.1786 263.9651 14.34238669970550
IRIDIUM 58 [+]          
1 25274U 98019C   16286.42181895  .00000217  00000-0  70342-4 0  9998
2 25274  86.4004  31.0806 0002299  97.6041 262.5416 14.34222957970552
IRIDIUM 59 [+]          
1 25275U 98019D   16286.42818177  .00000224  00000-0  72918-4 0  9998
2 25275  86.3999  30.9446 0002205 100.3206 259.8238 14.34222541970555
IRIDIUM 60 [+]          
1 25276U 98019E   16286.36474618  .00000222  00000-0  72271-4 0  9990
2 25276  86.3996  30.6002 0002220  96.7756 263.3693 14.34222649970546
IRIDIUM 62 [+]          
1 25285U 98021A   16286.18657101  .00000024  00000-0  13831-5 0  9991
2 25285  86.3959 327.5999 0002361  93.9628 266.1838 14.34221476969470
IRIDIUM 63 [-]          
1 25286U 98021B   16286.20450883  .00000145  00000-0  44428-4 0  9992
2 25286  86.3989 327.9859 0002164  98.7853 324.6795 14.34617495969491
